ONEWEB-0144             
1 47290U 20100AJ  25064.73687400  .00000412  00000+0  11107-2 0  9995
2 47290  87.8801  83.8873 0001832  82.4977 277.6360 13.12443939203122
ONEWEB-0145             
1 47291U 20100AK  25064.55520897 -.00000052  00000+0 -18024-3 0  9990
2 47291  87.8801  83.9487 0001927  88.3426 271.7923 13.12444920203293
ONEWEB-0146             
1 47292U 20100AL  25065.08563120 -.00000308  00000+0 -89253-3 0  9992
2 47292  87.8799  83.8283 0002123 101.6734 258.4633 13.12443581203273
ONEWEB-0147             
1 47293U 20100AM  25065.12780615  .00000156  00000+0  39833-3 0  9996
2 47293  87.8798  83.8040 0002134  85.8362 274.3010 13.12441432203174
ONEWEB-0115             
1 48042U 21025A   25064.91189366 -.00000316  00000+0 -90116-3 0  9999
2 48042  87.8895  53.2973 0001953  88.2323 271.9030 13.13438179192125
ONEWEB-0152             
1 48043U 21025B   25065.00116802 -.00000237  00000+0 -68556-3 0  9991
2 48043  87.8899  53.2877 0001977  88.4367 271.6988 13.13348499192101
ONEWEB-0153             
1 48044U 21025C   25064.90287185 -.00000178  00000+0 -52211-3 0  9998
2 48044  87.8904  53.3017 0001827  84.8080 275.3257 13.13328275192078
ONEWEB-0154             
1 48045U 21025D   25064.97580224 -.00000127  00000+0 -38393-3 0  9995
2 48045  87.8900  53.2905 0001943  86.3519 273.7833 13.13352388192055
